{
  "type": "FeatureCollection",
  "features": [
    {
      "type": "Feature",
      "properties": {
        "norad_id": 41948,
        "name": "CARTOSAT-2D",
        "group": "resource",
        "lat": 9.543177835272306,
        "lon": 50.075307299438315,
        "alt_km": 511.9581191555453,
        "timestamp": "2025-12-19T22:41:52.036612+00:00",
        "meta_object_name": "CARTOSAT-2D",
        "meta_object_id": "2017-008A",
        "meta_epoch": "2025-12-19T17:54:48.758688",
        "meta_mean_motion": 15.19325868,
        "meta_eccentricity": 0.0005253,
        "meta_inclination": 97.4387,
        "meta_ra_of_asc_node": 51.1376,
        "meta_arg_of_pericenter": 140.4688,
        "meta_mean_anomaly": 219.6931,
        "meta_ephemeris_type": 0,
        "meta_classification_type": "U",
        "meta_norad_cat_id": 41948,
        "meta_element_set_no": 999,
        "meta_rev_at_epoch": 49033,
        "meta_bstar": 0.00020335,
        "meta_mean_motion_dot": 4.228e-05,
        "meta_mean_motion_ddot": 0,
        "tle_line1": "1 41948U 17008A   25353.74639767  .00004228  00000+0  20335-3 0  9990",
        "tle_line2": "2 41948  97.4387  51.1376 0005253 140.4688 219.6931 15.19325868490333"
      },
      "geometry": {
        "type": "Point",
        "coordinates": [
          50.075307299438315,
          9.543177835272306
        ]
      }
    },
    {
      "type": "Feature",
      "properties": {
        "norad_id": 42063,
        "name": "SENTINEL-2B",
        "group": "resource",
        "lat": -20.533847843348607,
        "lon": -116.94742302755135,
        "alt_km": 794.4782581600639,
        "timestamp": "2025-12-19T22:41:52.036623+00:00",
        "meta_object_name": "SENTINEL-2B",
        "meta_object_id": "2017-013A",
        "meta_epoch": "2025-12-19T18:24:22.744224",
        "meta_mean_motion": 14.30813264,
        "meta_eccentricity": 0.0001181,
        "meta_inclination": 98.5715,
        "meta_ra_of_asc_node": 66.1148,
        "meta_arg_of_pericenter": 91.5922,
        "meta_mean_anomaly": 268.5397,
        "meta_ephemeris_type": 0,
        "meta_classification_type": "U",
        "meta_norad_cat_id": 42063,
        "meta_element_set_no": 999,
        "meta_rev_at_epoch": 45898,
        "meta_bstar": 6.0552e-05,
        "meta_mean_motion_dot": 1.15e-06,
        "meta_mean_motion_ddot": 0,
        "tle_line1": "1 42063U 17013A   25353.76692991  .00000115  00000+0  60552-4 0  9992",
        "tle_line2": "2 42063  98.5715  66.1148 0001181  91.5922 268.5397 14.30813264458983"
      },
      "geometry": {
        "type": "Point",
        "coordinates": [
          -116.94742302755135,
          -20.533847843348607
        ]
      }
    },
    {
      "type": "Feature",
      "properties": {
        "norad_id": 42767,
        "name": "CARTOSAT-2E",
        "group": "resource",
        "lat": -78.28369997203268,
        "lon": 90.59582700860255,
        "alt_km": 514.9898488145518,
        "timestamp": "2025-12-19T22:41:52.036633+00:00",
        "meta_object_name": "CARTOSAT-2E",
        "meta_object_id": "2017-036C",
        "meta_epoch": "2025-12-19T18:18:41.590368",
        "meta_mean_motion": 15.19266198,
        "meta_eccentricity": 0.0002437,
        "meta_inclination": 97.4555,
        "meta_ra_of_asc_node": 51.2585,
        "meta_arg_of_pericenter": 204.1094,
        "meta_mean_anomaly": 156.0027,
        "meta_ephemeris_type": 0,
        "meta_classification_type": "U",
        "meta_norad_cat_id": 42767,
        "meta_element_set_no": 999,
        "meta_rev_at_epoch": 47090,
        "meta_bstar": 0.00022354,
        "meta_mean_motion_dot": 4.646e-05,
        "meta_mean_motion_ddot": 0,
        "tle_line1": "1 42767U 17036C   25353.76298137  .00004646  00000+0  22354-3 0  9992",
        "tle_line2": "2 42767  97.4555  51.2585 0002437 204.1094 156.0027 15.19266198470904"
      },
      "geometry": {
        "type": "Point",
        "coordinates": [
          90.59582700860255,
          -78.28369997203268
        ]
      }
    },
    {
      "type": "Feature",
      "properties": {
        "norad_id": 42920,
        "name": "FORMOSAT-5",
        "group": "resource",
        "lat": 2.4493820659071113,
        "lon": 67.76499228620813,
        "alt_km": 725.2358847448195,
        "timestamp": "2025-12-19T22:41:52.036643+00:00",
        "meta_object_name": "FORMOSAT-5",
        "meta_object_id": "2017-049A",
        "meta_epoch": "2025-12-19T17:43:14.144160",
        "meta_mean_motion": 14.50764408,
        "meta_eccentricity": 0.0009845,
        "meta_inclination": 98.2446,
        "meta_ra_of_asc_node": 67.9172,
        "meta_arg_of_pericenter": 277.788,
        "meta_mean_anomaly": 82.2197,
        "meta_ephemeris_type": 0,
        "meta_classification_type": "U",
        "meta_norad_cat_id": 42920,
        "meta_element_set_no": 999,
        "meta_rev_at_epoch": 44065,
        "meta_bstar": 4.7807e-05,
        "meta_mean_motion_dot": 1.44e-06,
        "meta_mean_motion_ddot": 0,
        "tle_line1": "1 42920U 17049A   25353.73835815  .00000144  00000+0  47807-4 0  9994",
        "tle_line2": "2 42920  98.2446  67.9172 0009845 277.7880  82.2197 14.50764408440656"
      },
      "geometry": {
        "type": "Point",
        "coordinates": [
          67.76499228620813,
          2.4493820659071113
        ]
      }
    },
    {
      "type": "Feature",
      "properties": {
        "norad_id": 42969,
        "name": "SENTINEL-5P",
        "group": "resource",
        "lat": -53.48708654429537,
        "lon": -55.48478275205526,
        "alt_km": 834.5266078328868,
        "timestamp": "2025-12-19T22:41:52.036654+00:00",
        "meta_object_name": "SENTINEL-5P",
        "meta_object_id": "2017-064A",
        "meta_epoch": "2025-12-19T14:29:43.433088",
        "meta_mean_motion": 14.1951907,
        "meta_eccentricity": 0.000102,
        "meta_inclination": 98.7794,
        "meta_ra_of_asc_node": 292.1275,
        "meta_arg_of_pericenter": 90.2073,
        "meta_mean_anomaly": 269.922,
        "meta_ephemeris_type": 0,
        "meta_classification_type": "U",
        "meta_norad_cat_id": 42969,
        "meta_element_set_no": 999,
        "meta_rev_at_epoch": 42408,
        "meta_bstar": 3.7143e-05,
        "meta_mean_motion_dot": 3.4e-07,
        "meta_mean_motion_ddot": 0,
        "tle_line1": "1 42969U 17064A   25353.60397492  .00000034  00000+0  37143-4 0  9994",
        "tle_line2": "2 42969  98.7794 292.1275 0001020  90.2073 269.9220 14.19519070424083"
      },
      "geometry": {
        "type": "Point",
        "coordinates": [
          -55.48478275205526,
          -53.48708654429537
        ]
      }
    },
    {
      "type": "Feature",
      "properties": {
        "norad_id": 42987,
        "name": "SKYSAT-C11",
        "group": "resource",
        "lat": 43.057879966395625,
        "lon": -41.39338502729254,
        "alt_km": 419.2393516123293,
        "timestamp": "2025-12-19T22:41:52.036664+00:00",
        "meta_object_name": "SKYSAT-C11",
        "meta_object_id": "2017-068A",
        "meta_epoch": "2025-12-19T19:00:25.726752",
        "meta_mean_motion": 15.47730564,
        "meta_eccentricity": 0.0001151,
        "meta_inclination": 97.4143,
        "meta_ra_of_asc_node": 131.4598,
        "meta_arg_of_pericenter": 100.0017,
        "meta_mean_anomaly": 260.1363,
        "meta_ephemeris_type": 0,
        "meta_classification_type": "U",
        "meta_norad_cat_id": 42987,
        "meta_element_set_no": 999,
        "meta_rev_at_epoch": 45540,
        "meta_bstar": 0.00031864,
        "meta_mean_motion_dot": 0.00016416,
        "meta_mean_motion_ddot": 0,
        "tle_line1": "1 42987U 17068A   25353.79196443  .00016416  00000+0  31864-3 0  9995",
        "tle_line2": "2 42987  97.4143 131.4598 0001151 100.0017 260.1363 15.47730564455409"
      },
      "geometry": {
        "type": "Point",
        "coordinates": [
          -41.39338502729254,
          43.057879966395625
        ]
      }
    },
    {
      "type": "Feature",
      "properties": {
        "norad_id": 42988,
        "name": "SKYSAT-C10",
        "group": "resource",
        "lat": 3.3279377265372316,
        "lon": -54.7486547877479,
        "alt_km": 472.122198150284,
        "timestamp": "2025-12-19T22:41:52.036676+00:00",
        "meta_object_name": "SKYSAT-C10",
        "meta_object_id": "2017-068B",
        "meta_epoch": "2025-12-18T22:25:10.285248",
        "meta_mean_motion": 15.32190604,
        "meta_eccentricity": 0.00054557,
        "meta_inclination": 97.426,
        "meta_ra_of_asc_node": 123.8024,
        "meta_arg_of_pericenter": 86.4338,
        "meta_mean_anomaly": 273.7528,
        "meta_ephemeris_type": 0,
        "meta_classification_type": "U",
        "meta_norad_cat_id": 42988,
        "meta_element_set_no": 999,
        "meta_rev_at_epoch": 45474,
        "meta_bstar": 0.00029573083,
        "meta_mean_motion_dot": 9.118e-05,
        "meta_mean_motion_ddot": 0,
        "tle_line1": "1 42988U 17068B   25352.93414682  .00009118  00000+0  29573-3 0  9994",
        "tle_line2": "2 42988  97.4260 123.8024 0005455  86.4338 273.7528 15.32190604454741"
      },
      "geometry": {
        "type": "Point",
        "coordinates": [
          -54.7486547877479,
          3.3279377265372316
        ]
      }
    }
  ]
}